#aV2024  1 18  0  0  0.00000000     288 DD+AD WGS84 FIT  NGA
## 2297 345600.00000000   300.00000000 60327 0.0000000000000
+   31     1  2  3  4  5  6  7  8  9 10 11 12 13 14 15 16 17
+         18 19 20 21 22 23 24 25 26 28 29 30 31 32  0  0  0
+          0  0  0  0  0  0  0  0  0  0  0  0  0  0  0  0  0
+          0  0  0  0  0  0  0  0  0  0  0  0  0  0  0  0  0
+          0  0  0  0  0  0  0  0  0  0  0  0  0  0  0  0  0
++         2  2  2  2  2  2  2  2  2  2  2  2  2  2  2  2  2
++         2  2  2  2  2  2  2  2  2  2  2  2  2  2  0  0  0
++         0  0  0  0  0  0  0  0  0  0  0  0  0  0  0  0  0
++         0  0  0  0  0  0  0  0  0  0  0  0  0  0  0  0  0
++         0  0  0  0  0  0  0  0  0  0  0  0  0  0  0  0  0
%c cc cc ccc ccc cccc cccc cccc cccc ccccc ccccc ccccc ccccc
%c cc cc ccc ccc cccc cccc cccc cccc ccccc ccccc ccccc ccccc
%f  0.0000000  0.000000000  0.00000000000  0.000000000000000
%f  0.0000000  0.000000000  0.00000000000  0.000000000000000
%i    0    0    0    0      0      0      0      0         0
%i    0    0    0    0      0      0      0      0         0
/*      NGA, ST. LOUIS,MO.                                  
/*   EPHEMERIS COMPUTED FROM 2 DAYS OF DATA                 
/*   EPOCHA v9 SMOOTHER                                     
/*   G2296 IERS2010 SATIGS SATAPC                           
*  2024  1 18  1 15  0.00000000
P  1  20136.195714   9875.691220  14149.784576    166.411536                    
V  1  10661.271099  15030.370640 -24715.147271      0.010908                    
P  2  21696.974339  13529.273675   8137.624433   -499.299315                    
V  2   5319.693146   8246.392717 -29503.772125      0.056517                    
P  3  14005.830909   4400.234592  21991.879825    133.344441                    
V  3  -9335.017981  26614.536465    727.341765      0.257849                    
P  4  25056.985843   2312.754320   8719.796888    268.788073                    
V  4 -10531.387097   4001.038566  29109.788064      0.097088                    
P  5  -8964.745163 -16115.235844 -19257.734296   -158.360391                    
V  5   8095.495722 -22718.025864  15472.461835     -0.014214                    
P  6  -1107.157126 -19627.122933  17879.407517    440.957504                    
V  6  15356.595653  16534.187885  19277.510157     -0.134067                    
P  7  15848.034593  -4058.508973 -20527.160068    -39.918236                    
V  7  17095.508119  21064.922612   8361.705505     -0.093354                    
P  8  20324.123875   7055.573964 -15933.229260   -162.616977                    
V  8 -19075.441353   5991.768770 -21382.336206     -0.018871                    
P  9  25293.948992  -7623.239227  -3135.712656     62.278662                    
V  9   4376.551031   1959.988161  31320.400994      0.122575                    
P 10 -10678.346968  23880.657855  -3221.850809    -69.745727                    
V 10   -823.044338  -4923.173582 -32091.356677     -0.014772                    
P 11 -10259.510787 -22954.792375   8660.714388   -543.746385                    
V 11   8607.912038   7168.014458  29232.621562     -0.138930                    
P 12 -14009.306247  -5455.867949  21610.947119   -468.942726                    
V 12  11062.298459 -25848.831944    705.283526     -0.038241                    
P 13 -11174.769864 -13386.505292 -20299.710633    616.891605                    
V 13  25170.496664  -1969.033416 -12471.159042      0.036983                    
P 14  13510.142230 -21727.132801  -6744.082119    301.523076                    
V 14    -43.388525   9248.085377 -29964.476912      0.102182                    
P 15 -20724.925768  -5542.375634 -16277.903401    118.325444                    
V 15  17986.400128  -8489.003184 -20426.311878      0.038840                    
P 16   2654.456038  21074.601597 -15980.412289   -381.960829                    
V 16 -10100.037923  17241.562586  21955.155086      0.077990                    
P 17  17664.147574 -12932.514567  15571.028605    719.618907                    
V 17  18969.574375   -805.617362 -22678.303977     -0.009359                    
P 18 -14509.790720   5441.352936 -21578.059293   -534.629452                    
V 18 -17151.374254 -21329.881303   5971.469755     -0.091244                    
P 19   8487.547516 -14579.758738  20232.740888    428.024014                    
V 19  26193.083772   -952.431843 -11912.117356      0.052647                    
P 20  -1941.405251 -25168.327237  -8476.071571    391.002561                    
V 20   4466.580116 -10213.913419  28934.294238     -0.017819                    
P 21  20970.309674  16850.591364   3670.879193    138.056568                    
V 21   1496.614348   4096.585761 -30711.798107     -0.012484                    
P 22  10097.078089 -24712.034884   1573.410738     46.446021                    
V 22   2890.931048   -285.579136 -31514.275336     -0.064788                    
P 23 -15410.413771  15802.917806 -14613.521508    137.478382                    
V 23   3923.460062 -18308.468343 -24084.229724      0.075460                    
P 24 -21373.577275 -15030.808268   5454.871664   -415.788646                    
V 24  -3044.386965  -7479.388981 -29854.336015     -0.070587                    
P 25 -16672.493322   7415.989400  18867.309593    485.624316                    
V 25   6244.520380 -24053.901509  14980.248168      0.013058                    
P 26  -2167.970404  25587.527751  -6120.712546    199.323089                    
V 26  -5732.347954   6439.315206  30010.476486     -0.035917                    
P 28  -1136.334567  18443.073725  19056.091182   -101.979026                    
V 28 -17397.776202 -16942.237376  15335.306793     -0.115433                    
P 29 -26181.066035   4322.158801  -2108.262105   -608.541241                    
V 29  -2846.074221  -2019.251395  31820.705868      0.005106                    
P 30   7786.293548 -14438.234259 -20722.801317   -444.137927                    
V 30  18074.125346  19734.654385  -7183.843819      0.046838                    
P 31   6400.041233  22064.384942  12758.011596   -227.369832                    
V 31 -12760.132888 -11146.229858  25664.306871     -0.002287                    
P 32 -13575.957648  14991.202286  17300.183413   -605.837158                    
V 32 -21606.303581   2452.821203 -19503.113193     -0.027794                    
EOF
